ONEWEB-0229             
1 48779U 21045N   24346.58133369  .00013598  00000+0  36068-1 0  9993
2 48779  87.9066   9.2145 0001797 107.7386 252.3940 13.15479913171759
ONEWEB-0228             
1 48780U 21045P   24346.53775472  .00000094  00000+0  21463-3 0  9999
2 48780  87.9068   9.2024 0001717  89.4674 270.6653 13.15548146171666
ONEWEB-0232             
1 48781U 21045Q   24346.58924574  .00000199  00000+0  49390-3 0  9999
2 48781  87.9057   9.1974 0001750  91.4208 268.7123 13.15547743171999
ONEWEB-0231             
1 48782U 21045R   24346.56706677 -.00000049  00000+0 -16357-3 0  9993
2 48782  87.9077   9.2588 0001571  85.4379 274.6931 13.15549106171681
ONEWEB-0234             
1 48783U 21045S   24346.58687316  .00000150  00000+0  36546-3 0  9997
2 48783  87.9067   9.2003 0002251 127.3152 232.8184 13.15549381171821
ONEWEB-0238             
1 48784U 21045T   24346.54090333 -.00000012  00000+0 -65828-4 0  9996
2 48784  87.9072   9.2261 0001853  98.0758 262.0582 13.15546194171711
ONEWEB-0240             
1 48785U 21045U   24346.55043113 -.00000069  00000+0 -21710-3 0  9995
2 48785  87.9070   9.1908 0001358  93.4533 266.6753 13.15549176171743
ONEWEB-0246             
1 48786U 21045V   24346.54487894 -.00000006  00000+0 -50529-4 0  9995
2 48786  87.9071   9.1991 0001740  87.1885 272.9445 13.15549069171617
